STARLINK-3182           
1 51469U 22010P   24153.39190481  .00002361  00000+0  16636-3 0  9996
2 51469  53.2171 300.4679 0002523  81.8929 278.2349 15.08847626129750
STARLINK-3415           
1 51472U 22010S   24153.56581448  .00000626  00000+0  57419-4 0  9993
2 51472  53.2172 299.6179 0001069 113.8942 246.2162 15.08840772129780
STARLINK-3528           
1 51714U 22016A   24153.57497222  .00001365  00000+0  10376-3 0  9996
2 51714  53.2180 349.6440 0001048  82.8961 277.2150 15.08856994126958
STARLINK-3533           
1 51715U 22016B   24152.83626143  .00000535  00000+0  51697-4 0  9991
2 51715  53.2180 352.9657 0001235 103.1217 256.9913 15.08840556126908
STARLINK-3543           
1 51716U 22016C   24153.24009754  .00001450  00000+0  10913-3 0  9993
2 51716  53.2183 351.1487 0001132  94.7000 265.4122 15.08849202126909
STARLINK-3445           
1 51717U 22016D   24153.24474386  .00001254  00000+0  96818-4 0  9992
2 51717  53.2170 351.2149 0000959  90.8933 269.2169 15.08849629126973
STARLINK-3546           
1 51718U 22016E   24153.55290792 -.00000359  00000+0 -44741-5 0  9990
2 51718  53.2179 349.7403 0001290  88.7313 271.3827 15.08837632126948
STARLINK-3540           
1 51719U 22016F   24153.56764411 -.00000630  00000+0 -21485-4 0  9997
2 51719  53.2179 349.7509 0001196  92.2727 267.8402 15.08833673126940
STARLINK-3526           
1 51720U 22016G   24153.28153849  .00000081  00000+0  23147-4 0  9990
2 51720  53.2179 350.9308 0001087  78.5591 281.5524 15.08842464126898
STARLINK-3524           
1 51721U 22016H   24152.82890386  .00000121  00000+0  25712-4 0  9999
2 51721  53.2185 352.9989 0001375 101.6959 258.4187 15.08840977125770
STARLINK-3535           
1 51722U 22016J   24152.94570609  .00001336  00000+0  10198-3 0  9996
2 51722  53.2169 352.4660 0001092  83.1459 276.9657 15.08844030126850
STARLINK-3531           
1 51723U 22016K   24153.58334491  .00343723  60189-4  70391-3 0  9994
2 51723  53.1318 308.8969 0008841 307.1906  98.3176 15.98798078132564
STARLINK-3529           
1 51724U 22016L   24152.80586793  .00001467  00000+0  11025-3 0  9999
2 51724  53.2184 353.0977 0001235  89.1692 270.9442 15.08841514125760
STARLINK-3522           
1 51725U 22016M   24152.81690495  .00000813  00000+0  69138-4 0  9999
2 51725  53.2166 353.0431 0001049  95.8777 264.2335 15.08845765125766
STARLINK-3527           
1 51726U 22016N   24152.84726758 -.00000147  00000+0  88558-5 0  9994
2 51726  53.2179 342.9096 0001185  79.9541 280.1585 15.08842131125913
STARLINK-3532           
1 51727U 22016P   24153.27322883 -.00000262  00000+0  16461-5 0  9996
2 51727  53.2183 350.9951 0001058  81.3624 278.7488 15.08839259126896
STARLINK-3448           
1 51728U 22016Q   24153.23734059  .00000569  00000+0  53800-4 0  9991
2 51728  53.2190 341.1593 0001171  71.9543 288.1577 15.08851724127100
STARLINK-3523           
1 51729U 22016R   24153.24838051  .00000878  00000+0  73207-4 0  9996
2 51729  53.2182 341.1108 0001335  80.3296 279.7847 15.08850993127108
STARLINK-3530           
1 51730U 22016S   24152.83254618  .00001056  00000+0  84405-4 0  9994
2 51730  53.2180 342.9787 0001215  91.1659 268.9472 15.08842388125910
STARLINK-3514           
1 51731U 22016T   24152.90981042  .00004305  00000+0  28828-3 0  9997
2 51731  53.2180 342.6319 0001160  89.2764 270.8361 15.08856507125921
STARLINK-3518           
1 51732U 22016U   24153.22630870 -.00000151  00000+0  85842-5 0  9991
2 51732  53.2162 341.2095 0000836  83.1816 276.9271 15.08838706127119
STARLINK-3525           
1 51733U 22016V   24153.23461878 -.00003359  00000+0 -19311-3 0  9993
2 51733  53.2170 341.1853 0001340  93.0310 267.0835 15.08830784127036
STARLINK-3450           
1 51734U 22016W   24152.81782401  .00001628  00000+0  12031-3 0  9992
2 51734  53.2160 343.0461 0001010  79.5418 280.5688 15.08842792125906
STARLINK-3517           
1 51735U 22016X   24153.22261447  .00001634  00000+0  12067-3 0  9997
2 51735  53.2193 341.2285 0001199  85.0211 275.0918 15.08857409127085
STARLINK-3447           
1 51736U 22016Y   24153.21622360  .00002481  00000+0  17387-3 0  9993
2 51736  53.2188 341.3393 0001174  94.2391 265.8735 15.08853330127099
STARLINK-3509           
1 51737U 22016Z   24153.55016103 -.00001264  00000+0 -61353-4 0  9996
2 51737  53.2175 339.7551 0000830  84.0721 276.0366 15.08829434127075
STARLINK-3515           
1 51738U 22016AA  24152.80310217  .00002457  00000+0  17236-3 0  9990
2 51738  53.2194 343.1036 0001267 116.6434 243.4688 15.08849758125908
STARLINK-3516           
1 51739U 22016AB  24153.21157802  .00000823  00000+0  69777-4 0  9999
2 51739  53.2180 341.2757 0000946  88.3904 271.7197 15.08849694127082
STARLINK-3500           
1 51740U 22016AC  24152.92822243  .00000349  00000+0  39995-4 0  9998
2 51740  53.2190 342.5437 0001343 100.0963 260.0180 15.08844600125929
STARLINK-3520           
1 51741U 22016AD  24152.94021720  .00001423  00000+0  10742-3 0  9994
2 51741  53.2183 342.5035 0000815 100.0424 260.0660 15.08847000125921
STARLINK-3521           
1 51742U 22016AE  24152.94296672  .00000586  00000+0  54863-4 0  9997
2 51742  53.2192 342.6718 0001029  91.1633 268.9477 15.08843792125928
STARLINK-3512           
1 51743U 22016AF  24153.47378552 -.00000412  00000+0 -78311-5 0  9990
2 51743  53.2171 330.0209 0001244  85.7665 274.3470 15.08835949127285
STARLINK-3452           
1 51744U 22016AG  24153.25206487  .00000603  00000+0  55937-4 0  9992
2 51744  53.2184 341.1210 0001324  84.1922 275.9221 15.08849527127034
STARLINK-3449           
1 51745U 22016AH  24152.93190449  .00001049  00000+0  84003-4 0  9998
2 51745  53.2170 342.5252 0001378  89.6173 270.4977 15.08844268125929
STARLINK-3502           
1 51746U 22016AJ  24152.88226689  .00001630  00000+0  12044-3 0  9990
2 51746  53.2180 332.7640 0001326  89.1114 271.0031 15.08841868127176
STARLINK-3446           
1 51747U 22016AK  24152.79302151  .00003207  00000+0  21943-3 0  9990
2 51747  53.2156 343.2027 0001159  93.3659 266.7466 15.08853146127031
STARLINK-3501           
1 51748U 22016AL  24152.87394254  .00001583  00000+0  11753-3 0  9998
2 51748  53.2184 332.7940 0001220  98.0994 262.0137 15.08846863127125
STARLINK-3451           
1 51749U 22016AM  24153.23369254  .00000305  00000+0  37239-4 0  9991
2 51749  53.2181 341.3590 0001779  85.1152 275.0043 15.08839090127070
STARLINK-3505           
1 51750U 22016AN  24153.19874922 -.00000234  00000+0  33744-5 0  9991
2 51750  53.2189 331.3439 0001065  87.1067 273.0047 15.08834151127228
STARLINK-3506           
1 51751U 22016AP  24153.20978569  .00000106  00000+0  24766-4 0  9996
2 51751  53.2175 331.2920 0001290  77.8712 282.2425 15.08840781127229
STARLINK-3511           
1 51752U 22016AQ  24153.18769237  .00001283  00000+0  98658-4 0  9992
2 51752  53.2179 331.3165 0001135  93.5297 266.5825 15.08844569127224
STARLINK-3507           
1 51753U 22016AR  24153.46738835  .00000736  00000+0  64324-4 0  9999
2 51753  53.2184 330.1394 0001963  94.5666 265.5550 15.08839863127216
STARLINK-3457           
1 51754U 22016AS  24152.76719395  .00000769  00000+0  66401-4 0  9996
2 51754  53.2170 333.0292 0000837  81.5180 278.5907 15.08845828126045
STARLINK-3460           
1 51755U 22016AT  24153.19041726  .00001756  00000+0  12835-3 0  9999
2 51755  53.2182 331.3705 0001128  78.7603 281.3516 15.08849728127223
STARLINK-3513           
1 51756U 22016AU  24153.22723001 -.00000246  00000+0  26502-5 0  9999
2 51756  53.2159 331.2057 0000880  73.8786 286.2303 15.08837326127183
STARLINK-3459           
1 51757U 22016AV  24152.89330347  .00001567  00000+0  11648-3 0  9998
2 51757  53.2172 332.7140 0001167  92.7578 267.3548 15.08845529126067
STARLINK-3458           
1 51758U 22016AW  24153.48114745 -.00000406  00000+0 -74085-5 0  9996
2 51758  53.2155 330.0190 0001078  85.7780 274.3335 15.08835175127297
STARLINK-3456           
1 51759U 22016AX  24153.21986515  .00000045  00000+0  20900-4 0  9993
2 51759  53.2156 331.2351 0001198  93.1080 267.0050 15.08842247127257
STARLINK-3622           
1 51768U 22017A   24152.85278745 -.00001557  00000+0 -79752-4 0  9992
2 51768  53.2189   2.8824 0001396 102.3276 257.7872 15.08854203126396
STARLINK-3621           
1 51769U 22017B   24153.30910073  .00000498  00000+0  49394-4 0  9991
2 51769  53.2192   0.8332 0001334  92.4675 267.6470 15.08848803126479
STARLINK-3612           
1 51770U 22017C   24153.57774854  .00000868  00000+0  72643-4 0  9991
2 51770  53.2192 359.6273 0001591 106.4298 253.6869 15.08835031126513
STARLINK-3614           
1 51771U 22017D   24153.57038716 -.00000969  00000+0 -42823-4 0  9993
2 51771  53.2180 359.6517 0001257 100.3199 259.7935 15.08843284126514
STARLINK-3623           
1 51772U 22017E   24152.83438709 -.00000124  00000+0  10305-4 0  9990
2 51772  53.2202   2.9671 0001636  79.5854 280.5323 15.08839777124945
STARLINK-3624           
1 51773U 22017F   24152.90524855  .00002525  00000+0  17675-3 0  9999
2 51773  53.2177   2.6187 0001496  87.3488 272.7675 15.08826342124969
STARLINK-3629           
1 51774U 22017G   24152.89326555  .00001326  00000+0  10139-3 0  9991
2 51774  53.2188   2.7009 0001308  83.0225 277.0916 15.08847285124921
STARLINK-3620           
1 51775U 22017H   24152.90431117 -.00000128  00000+0  10024-4 0  9999
2 51775  53.2184   2.6518 0001214  76.5652 283.5475 15.08839574124967
STARLINK-3608           
1 51776U 22017J   24152.88958769  .00000088  00000+0  23588-4 0  9997
2 51776  53.2188   2.7181 0001185  89.1578 270.9550 15.08841124124927
STARLINK-3625           
1 51777U 22017K   24153.55661840  .00002018  00000+0  14485-3 0  9994
2 51777  53.2182 359.6986 0002166  81.5200 278.6037 15.08844924126521
STARLINK-3615           
1 51778U 22017L   24152.83160994 -.00000972  00000+0 -42975-4 0  9994
2 51778  53.2206 352.8519 0001484 119.0221 241.0920 15.08844602124906
